GORIZONT 1 [-]          
1 11158U 78118A   22319.09832450 -.00000063  00000+0  00000+0 0  9997
2 11158  11.0767 199.4222 3442798 289.4798  37.1241  1.00307453109802
GORIZONT 2 [-]          
1 11440U 79062A   22320.54668345 -.00000001  00000+0  00000+0 0  9994
2 11440   8.9344 300.0923 0003840 286.0717  91.1162  1.00298129124888
GORIZONT 3 [-]          
1 11648U 79105A   22320.47764881 -.00000142  00000+0  00000+0 0  9992
2 11648   9.0963 301.5469 0013625 218.6489 145.8139  1.00347803109368
GORIZONT 4 [-]          
1 11841U 80049A   22320.77819358 -.00000245  00000+0  00000+0 0  9993
2 11841  10.2520 307.4006 0001057 286.5204 248.7346  0.98631783220617
GORIZONT 5 [-]          
1 13092U 82020A   22320.78324913 -.00000214  00000+0  00000+0 0  9999
2 13092  11.2539 312.7171 0034226 215.5000 342.1037  0.98534335108706
GORIZONT 6 [-]          
1 13624U 82103A   22321.33807963  .00000114  00000+0  00000+0 0  9993
2 13624  10.1777 312.7658 0001847 234.1296 186.6542  1.00312744107822
GORIZONT 7 [-]          
1 14160U 83066A   22320.54877541  .00000015  00000+0  00000+0 0  9999
2 14160  11.8573 322.1895 0009493 316.0602  50.2891  0.98346208141889
GORIZONT 8 [-]          
1 14532U 83118A   22321.39956352 -.00000075  00000+0  00000+0 0  9999
2 14532  12.0338 324.0471 0030085 152.7482  13.6462  0.98269404107686
GORIZONT 9 [-]          
1 14940U 84041A   22321.05018889 -.00000057  00000+0  00000+0 0  9995
2 14940  11.2245 322.0678 0004837 215.5612 328.1885  1.00222843108902
GORIZONT 10 [-]         
1 15144U 84078A   22320.71569630  .00000097  00000+0  00000+0 0  9992
2 15144  11.3230 323.0971 0000659 179.5357   3.8947  1.00243509141459
GORIZONT 11 [-]         
1 15484U 85007A   22320.91561000 -.00000362  00000+0  00000+0 0  9993
2 15484  11.5078 325.0830 0003469 162.9324  13.8468  1.00357689139503
GORIZONT 12 [-]         
1 16769U 86044A   22320.11319355  .00000110  00000+0  00000+0 0  9998
2 16769  12.1414 330.4802 0001942 230.9560 303.9323  1.00222192134139
GORIZONT 13 [-]         
1 17083U 86090A   22321.32020324 -.00000146  00000+0  00000+0 0  9998
2 17083  14.0315 337.6748 0013070 338.9849 202.0186  0.96727088106012
GORIZONT 14 [-]         
1 17969U 87040A   22320.74812166 -.00000157  00000+0  00000+0 0  9997
2 17969  12.9546 329.0499 0031668 177.2578 174.4301  0.97660033107077
GORIZONT 15 [-]         
1 19017U 88028A   22320.78446944 -.00000171  00000+0  00000+0 0  9997
2 19017  14.3303 340.4842 0036733 159.5894  16.0286  0.97830266106700
GORIZONT 16 [-]         
1 19397U 88071A   22320.78743306  .00000071  00000+0  00000+0 0  9996
2 19397  13.1797 339.1675 0013251  65.7197 127.7657  0.99983294125152
GORIZONT 17 [-]         
1 19765U 89004A   22320.45603139 -.00000274  00000+0  00000+0 0  9991
2 19765  13.7353 342.5273 0023189 136.4010 258.2091  0.99069500122613
GORIZONT 18 [-]         
1 20107U 89052A   22320.51757036 -.00000123  00000+0  00000+0 0  9992
2 20107  13.7826 343.7839 0033522 319.4618 217.8414  0.99398621121393
GORIZONT 19 [-]         
1 20263U 89081A   22321.12261868 -.00000120  00000+0  00000+0 0  9995
2 20263  13.5108 342.9576 0004286 209.1694 343.7130  1.00355871121375
GORIZONT 20 [-]         
1 20659U 90054A   22321.05437281 -.00000250  00000+0  00000+0 0  9996
2 20659  13.9547 345.7766 0007081 170.0988  12.3563  1.00242648118568
GORIZONT 21 [-]         
1 20923U 90094A   22320.95221552 -.00000293  00000+0  00000+0 0  9991
2 20923  13.9707 346.5470 0005345 203.0476 148.9934  1.00359301117327
GORIZONT 22 [-]         
1 20953U 90102A   22320.92005542 -.00000299  00000+0  00000+0 0  9996
2 20953  13.9303 346.9162 0002224  29.2037 149.5546  1.00249919117282
GORIZONT 23 [-]         
1 21533U 91046A   22320.52027248 -.00000134  00000+0  00000+0 0  9990
2 21533  14.7042 351.0812 0003353 301.9257 242.4066  0.98907988 33744
GORIZONT 24 [-]         
1 21759U 91074A   22320.65069840 -.00000001  00000+0  00000+0 0  9992
2 21759  14.8648 352.9922 0018240 225.6102 307.1038  0.98442261112071
GORIZONT 25 [-]         
1 21922U 92017A   22320.57727003 -.00000022  00000+0  00000+0 0  9998
2 21922  14.4055 352.3107 0028616  85.3483  77.1490  0.99843474111865
GORIZONT 26 [-]         
1 22041U 92043A   22320.52009815 -.00000169  00000+0  00000+0 0  9991
2 22041  14.5825 354.3245 0031471 236.0219 304.3043  0.99242416110489
GORIZONT 27 [-]         
1 22245U 92082A   22320.68536289  .00000131  00000+0  00000+0 0  9995
2 22245  14.4982 353.9027 0011149  11.9851 337.2278  1.00159641114000
GORIZONT 28 [-]         
1 22880U 93069A   22320.75718681  .00000107  00000+0  00000+0 0  9995
2 22880  14.6510 357.7723 0034635 135.5391 237.1930  0.99650527106095
GORIZONT 29 [-]         
1 22907U 93072A   22308.10478825 -.00000241  00000+0  00000+0 0  9997
2 22907  14.5667 357.3236 0009007 345.7505  71.1985  1.00159244105941
GORIZONT 30 [-]         
1 23108U 94030A   22320.92118855 -.00000261  00000+0  00000+0 0  9996
2 23108  14.5765 358.1254 0002297 180.8307 352.4964  1.00259008104372
GORIZONT 31 [-]         
1 23775U 96005A   22320.48889309 -.00000345  00000+0  00000+0 0  9993
2 23775  14.5090   4.3601 0019005 201.9607 159.9478  0.99897375 97971
GORIZONT 32 [-]         
1 23880U 96034A   22321.36029910  .00000070  00000+0  00000+0 0  9998
2 23880  14.4599   4.8669 0007787 358.3541  10.8717  1.00199228 96940
GORIZONT 33 [-]         
1 26372U 00029A   22319.95533788 -.00000176  00000+0  00000+0 0  9999
2 26372  13.2089  16.1099 0003193 111.5563 248.8393  1.00299730 82298
